{"type": "FeatureCollection", "features": [ {"type": "Feature", "properties": {"norad_id": 35288, "name": "COSMOS 2251 DEB", "group": "cosmos-2251-debris", "lat": 73.72449567592204, "lon": 109.84915642548435, "alt_km": 692.224192673928, "timestamp": "2025-12-15T07:02:38.010796+00:00", "meta": {"OBJECT_NAME": "COSMOS 2251 DEB", "OBJECT_ID": "1993-036AJS", "EPOCH": "2025-12-13T08:44:45.008448", "MEAN_MOTION": 14.65469737, "ECCENTRICITY": 0.00394163, "INCLINATION": 73.9514, "RA_OF_ASC_NODE": 13.9647, "ARG_OF_PERICENTER": 247.3959, "MEAN_ANOMALY": 112.3037, "EPHEMERIS_TYPE": 0, "CLASSIFICATION_TYPE": "U", "NORAD_CAT_ID": 35288, "ELEMENT_SET_NO": 999, "REV_AT_EPOCH": 87887, "BSTAR": 0.0016378254, "MEAN_MOTION_DOT": 8.951e-05, "MEAN_MOTION_DDOT": 0}, "tle": {"line1": "1 35288U 93036AJS 25347.36440982  .00008951  00000+0  16378-2 0  9993", "line2": "2 35288  73.9514  13.9647 0039416 247.3959 112.3037 14.65469737878876"}}, "geometry": {"type": "Point", "coordinates": [109.84915642548435, 73.72449567592204]}}, {"type": "Feature", "properties": {"norad_id": 35290, "name": "COSMOS 2251 DEB", "group": "cosmos-2251-debris", "lat": 29.25811276900354, "lon": -134.85610977757366, "alt_km": 624.9753797565627, "timestamp": "2025-12-15T07:02:38.010806+00:00", "meta": {"OBJECT_NAME": "COSMOS 2251 DEB", "OBJECT_ID": "1993-036AJU", "EPOCH": "2025-12-14T10:54:36.283104", "MEAN_MOTION": 14.80453244, "ECCENTRICITY": 0.00020944, "INCLINATION": 74.0055, "RA_OF_ASC_NODE": 56.0467, "ARG_OF_PERICENTER": 193.1019, "MEAN_ANOMALY": 167.0103, "EPHEMERIS_TYPE": 0, "CLASSIFICATION_TYPE": "U", "NORAD_CAT_ID": 35290, "ELEMENT_SET_NO": 999, "REV_AT_EPOCH": 87983, "BSTAR": 0.0020690014, "MEAN_MOTION_DOT": 0.00015828, "MEAN_MOTION_DDOT": 0}, "tle": {"line1": "1 35290U 93036AJU 25348.45458661  .00015828  00000+0  20690-2 0  9993", "line2": "2 35290  74.0055  56.0467 0002094 193.1019 167.0103 14.80453244879837"}}, "geometry": {"type": "Point", "coordinates": [-134.85610977757366, 29.25811276900354]}}, {"type": "Feature", "properties": {"norad_id": 35432, "name": "COSMOS 2251 DEB", "group": "cosmos-2251-debris", "lat": 50.58608844244446, "lon": 30.574563548554682, "alt_km": 488.00147321395525, "timestamp": "2025-12-15T07:02:38.010817+00:00", "meta": {"OBJECT_NAME": "COSMOS 2251 DEB", "OBJECT_ID": "1993-036AKA", "EPOCH": "2025-12-14T11:53:53.822112", "MEAN_MOTION": 15.23399104, "ECCENTRICITY": 0.00124915, "INCLINATION": 74.0198, "RA_OF_ASC_NODE": 11.8484, "ARG_OF_PERICENTER": 339.2428, "MEAN_ANOMALY": 20.8262, "EPHEMERIS_TYPE": 0, "CLASSIFICATION_TYPE": "U", "NORAD_CAT_ID": 35432, "ELEMENT_SET_NO": 999, "REV_AT_EPOCH": 87530, "BSTAR": 0.0051316466, "MEAN_MOTION_DOT": 0.00124451, "MEAN_MOTION_DDOT": 0}, "tle": {"line1": "1 35432U 93036AKA 25348.49576183  .00124451  00000+0  51316-2 0  9997", "line2": "2 35432  74.0198  11.8484 0012491 339.2428  20.8262 15.23399104875302"}}, "geometry": {"type": "Point", "coordinates": [30.574563548554682, 50.58608844244446]}}, {"type": "Feature", "properties": {"norad_id": 35433, "name": "COSMOS 2251 DEB", "group": "cosmos-2251-debris", "lat": 39.615434307726154, "lon": 140.0618647811103, "alt_km": 778.7397607525436, "timestamp": "2025-12-15T07:02:38.010827+00:00", "meta": {"OBJECT_NAME": "COSMOS 2251 DEB", "OBJECT_ID": "1993-036AKB", "EPOCH": "2025-12-10T18:27:52.031808", "MEAN_MOTION": 14.34742553, "ECCENTRICITY": 0.00254013, "INCLINATION": 74.0339, "RA_OF_ASC_NODE": 342.0559, "ARG_OF_PERICENTER": 37.4572, "MEAN_ANOMALY": 142.4072, "EPHEMERIS_TYPE": 0, "CLASSIFICATION_TYPE": "U", "NORAD_CAT_ID": 35433, "ELEMENT_SET_NO": 999, "REV_AT_EPOCH": 86552, "BSTAR": 0.00041847558, "MEAN_MOTION_DOT": 1.164e-05, "MEAN_MOTION_DDOT": 0}, "tle": {"line1": "1 35433U 93036AKB 25344.76935222  .00001164  00000+0  41848-3 0  9992", "line2": "2 35433  74.0339 342.0559 0025401  37.4572 142.4072 14.34742553865528"}}, "geometry": {"type": "Point", "coordinates": [140.0618647811103, 39.615434307726154]}}, {"type": "Feature", "properties": {"norad_id": 35434, "name": "COSMOS 2251 DEB", "group": "cosmos-2251-debris", "lat": -28.201129104614893, "lon": -159.8097900450185, "alt_km": 772.13124254993, "timestamp": "2025-12-15T07:02:38.010837+00:00", "meta": {"OBJECT_NAME": "COSMOS 2251 DEB", "OBJECT_ID": "1993-036AKC", "EPOCH": "2025-12-13T21:29:58.278624", "MEAN_MOTION": 14.25692247, "ECCENTRICITY": 0.00874643, "INCLINATION": 74.0404, "RA_OF_ASC_NODE": 211.5388, "ARG_OF_PERICENTER": 282.0357, "MEAN_ANOMALY": 77.0999, "EPHEMERIS_TYPE": 0, "CLASSIFICATION_TYPE": "U", "NORAD_CAT_ID": 35434, "ELEMENT_SET_NO": 999, "REV_AT_EPOCH": 86134, "BSTAR": 0.00076141319, "MEAN_MOTION_DOT": 1.854e-05, "MEAN_MOTION_DDOT": 0}, "tle": {"line1": "1 35434U 93036AKC 25347.89581341  .00001854  00000+0  76141-3 0  9999", "line2": "2 35434  74.0404 211.5388 0087464 282.0357  77.0999 14.25692247861349"}}, "geometry": {"type": "Point", "coordinates": [-159.8097900450185, -28.201129104614893]}}, {"type": "Feature", "properties": {"norad_id": 35435, "name": "COSMOS 2251 DEB", "group": "cosmos-2251-debris", "lat": -65.99995357521041, "lon": 58.94680023416035, "alt_km": 641.1758565044347, "timestamp": "2025-12-15T07:02:38.010847+00:00", "meta": {"OBJECT_NAME": "COSMOS 2251 DEB", "OBJECT_ID": "1993-036AKD", "EPOCH": "2025-12-12T14:28:49.329408", "MEAN_MOTION": 14.7846616, "ECCENTRICITY": 0.00079831, "INCLINATION": 74.0098, "RA_OF_ASC_NODE": 104.3344, "ARG_OF_PERICENTER": 198.3859, "MEAN_ANOMALY": 176.7731, "EPHEMERIS_TYPE": 0, "CLASSIFICATION_TYPE": "U", "NORAD_CAT_ID": 35435, "ELEMENT_SET_NO": 999, "REV_AT_EPOCH": 87537, "BSTAR": 0.0033882672, "MEAN_MOTION_DOT": 0.00024794, "MEAN_MOTION_DDOT": 0}, "tle": {"line1": "1 35435U 93036AKD 25346.60334872  .00024794  00000+0  33883-2 0  9996", "line2": "2 35435  74.0098 104.3344 0007983 198.3859 176.7731 14.78466160875374"}}, "geometry": {"type": "Point", "coordinates": [58.94680023416035, -65.99995357521041]}}, {"type": "Feature", "properties": {"norad_id": 35439, "name": "COSMOS 2251 DEB", "group": "cosmos-2251-debris", "lat": 30.12083623227422, "lon": -59.20689579558225, "alt_km": 1069.7766283674982, "timestamp": "2025-12-15T07:02:38.010858+00:00", "meta": {"OBJECT_NAME": "COSMOS 2251 DEB", "OBJECT_ID": "1993-036AKH", "EPOCH": "2025-12-14T03:35:04.308288", "MEAN_MOTION": 13.92816223, "ECCENTRICITY": 0.02421462, "INCLINATION": 74.018, "RA_OF_ASC_NODE": 132.3236, "ARG_OF_PERICENTER": 301.3061, "MEAN_ANOMALY": 233.8403, "EPHEMERIS_TYPE": 0, "CLASSIFICATION_TYPE": "U", "NORAD_CAT_ID": 35439, "ELEMENT_SET_NO": 999, "REV_AT_EPOCH": 83980, "BSTAR": 0.0018477357, "MEAN_MOTION_DOT": 3.02e-05, "MEAN_MOTION_DDOT": 0}, "tle": {"line1": "1 35439U 93036AKH 25348.14935542  .00003020  00000+0  18477-2 0  9993", "line2": "2 35439  74.0180 132.3236 0242146 301.3061 233.8403 13.92816223839807"}}, "geometry": {"type": "Point", "coordinates": [-59.20689579558225, 30.12083623227422]}}, {"type": "Feature", "properties": {"norad_id": 35440, "name": "COSMOS 2251 DEB", "group": "cosmos-2251-debris", "lat": -17.84577164431892, "lon": 27.976518325807316, "alt_km": 708.942470591458, "timestamp": "2025-12-15T07:02:38.010868+00:00", "meta": {"OBJECT_NAME": "COSMOS 2251 DEB", "OBJECT_ID": "1993-036AKJ", "EPOCH": "2025-12-10T08:26:45.842208", "MEAN_MOTION": 14.68793955, "ECCENTRICITY": 0.00692048, "INCLINATION": 74.0146, "RA_OF_ASC_NODE": 212.2531, "ARG_OF_PERICENTER": 353.6751, "MEAN_ANOMALY": 6.3537, "EPHEMERIS_TYPE": 0, "CLASSIFICATION_TYPE": "U", "NORAD_CAT_ID": 35440, "ELEMENT_SET_NO": 999, "REV_AT_EPOCH": 68730, "BSTAR": 0.0006737672, "MEAN_MOTION_DOT": 4.046e-05, "MEAN_MOTION_DDOT": 0}, "tle": {"line1": "1 35440U 93036AKJ 25344.35191947  .00004046  00000+0  67377-3 0  9990", "line2": "2 35440  74.0146 212.2531 0069204 353.6751   6.3537 14.68793955687302"}}, "geometry": {"type": "Point", "coordinates": [27.976518325807316, -17.84577164431892]}}, {"type": "Feature", "properties": {"norad_id": 35441, "name": "COSMOS 2251 DEB", "group": "cosmos-2251-debris", "lat": 73.32063320314558, "lon": 41.5827859763308, "alt_km": 679.0080105941333, "timestamp": "2025-12-15T07:02:38.010878+00:00", "meta": {"OBJECT_NAME": "COSMOS 2251 DEB", "OBJECT_ID": "1993-036AKK", "EPOCH": "2025-12-14T14:11:33.565344", "MEAN_MOTION": 14.62633199, "ECCENTRICITY": 0.00366471, "INCLINATION": 74.1346, "RA_OF_ASC_NODE": 294.5736, "ARG_OF_PERICENTER": 190.744, "MEAN_ANOMALY": 169.2949, "EPHEMERIS_TYPE": 0, "CLASSIFICATION_TYPE": "U", "NORAD_CAT_ID": 35441, "ELEMENT_SET_NO": 999, "REV_AT_EPOCH": 87457, "BSTAR": 0.0013427276, "MEAN_MOTION_DOT": 6.87e-05, "MEAN_MOTION_DDOT": 0}, "tle": {"line1": "1 35441U 93036AKK 25348.59136071  .00006870  00000+0  13427-2 0  9991", "line2": "2 35441  74.1346 294.5736 0036647 190.7440 169.2949 14.62633199874576"}}, "geometry": {"type": "Point", "coordinates": [41.5827859763308, 73.32063320314558]}}, {"type": "Feature", "properties": {"norad_id": 35442, "name": "COSMOS 2251 DEB", "group": "cosmos-2251-debris", "lat": 0.9562721394372141, "lon": -86.20545425081671, "alt_km": 617.9737197665972, "timestamp": "2025-12-15T07:02:38.010888+00:00", "meta": {"OBJECT_NAME": "COSMOS 2251 DEB", "OBJECT_ID": "1993-036AKL", "EPOCH": "2025-12-14T14:04:04.076256", "MEAN_MOTION": 14.84537177, "ECCENTRICITY": 0.00036244, "INCLINATION": 74.0267, "RA_OF_ASC_NODE": 95.4719, "ARG_OF_PERICENTER": 79.8842, "MEAN_ANOMALY": 280.2745, "EPHEMERIS_TYPE": 0, "CLASSIFICATION_TYPE": "U", "NORAD_CAT_ID": 35442, "ELEMENT_SET_NO": 999, "REV_AT_EPOCH": 87380, "BSTAR": 0.0019773818, "MEAN_MOTION_DOT": 0.00016689, "MEAN_MOTION_DDOT": 0}, "tle": {"line1": "1 35442U 93036AKL 25348.58615829  .00016689  00000+0  19774-2 0  9994", "line2": "2 35442  74.0267  95.4719 0003624  79.8842 280.2745 14.84537177873805"}}, "geometry": {"type": "Point", "coordinates": [-86.20545425081671, 0.9562721394372141]}}]}